IRIDIUM 7               
1 24793U 97020B   25060.51003112  .00001031  00000+0  34969-3 0  9997
2 24793  86.3958 221.9799 0002312  94.4946 265.6515 14.35790775456664
IRIDIUM 5               
1 24795U 97020D   25060.18572707  .00011295  00000+0  96049-3 0  9993
2 24795  86.3917 133.4950 0113017 164.6758 195.7942 14.92816664469371
IRIDIUM 4               
1 24796U 97020E   25059.79517709  .00000959  00000+0  31896-3 0  9994
2 24796  86.3961 219.2286 0002060  96.3633 263.7798 14.36697931456906
IRIDIUM 914             
1 24836U 97030A   25059.89167303  .00001440  00000+0  44490-3 0  9992
2 24836  86.3920 228.1166 0001719 143.0498 217.0820 14.40690324591532
IRIDIUM 16              
1 24841U 97030F   25059.75902583  .00001163  00000+0  37414-3 0  9990
2 24841  86.3980 250.8176 0004165  75.4174 284.7486 14.38541618451413
IRIDIUM 911             
1 24842U 97030G   25060.48664834  .00001469  00000+0  39469-3 0  9998
2 24842  86.4408 249.3926 0016276  96.1638 264.1420 14.47404874459484
IRIDIUM 17              
1 24870U 97034B   25060.16645147  .00001048  00000+0  34269-3 0  9990
2 24870  86.3912 280.2049 0002883  53.2304 306.9158 14.37658416448064
IRIDIUM 920             
1 24871U 97034C   25060.55620842  .00000974  00000+0  29443-3 0  9994
2 24871  86.3916 259.4927 0013579  79.1070 281.1657 14.41360580451332
